FENGYUN 1C DEB          
1 29758U 99025AY  23258.75739017  .00004783  00000+0  21133-2 0  9998
2 29758  98.8576 347.2614 0029999 184.2001 307.5335 14.23473255859764
FENGYUN 1C DEB          
1 29760U 99025BA  23258.56086638  .00000446  00000+0  27010-3 0  9997
2 29760  98.7783 273.4216 0131917 324.1315  35.1050 14.07177632855677
FENGYUN 1C DEB          
1 29762U 99025BC  23258.45490836  .00000578  00000+0  23352-3 0  9997
2 29762  98.5172 255.7955 0210053 194.3416 323.1467 14.20233270863093
FENGYUN 1C DEB          
1 29763U 99025BD  23258.56080830  .00000468  00000+0  28542-3 0  9993
2 29763  98.6916 255.2362 0129255 332.2900 151.5900 14.06650244855287
FENGYUN 1C DEB          
1 29765U 99025BF  23258.55628410  .00000295  00000+0  21946-3 0  9995
2 29765  98.9063 288.4336 0059075 212.8432 301.3312 14.01774782852726
FENGYUN 1C DEB          
1 29766U 99025BG  23258.45846807  .00002861  00000+0  20669-2 0  9998
2 29766  98.6169 248.1590 0157470  35.1065 116.3503 13.91605658843866
FENGYUN 1C DEB          
1 29767U 99025BH  23258.59862615  .00003542  00000+0  16052-2 0  9997
2 29767  98.2129 302.7559 0368019 214.7276 301.8661 13.92140451841706
FENGYUN 1C DEB          
1 29769U 99025BK  23258.54067739  .00002426  00000+0  14265-2 0  9992
2 29769  99.1714 292.0193 0099498 261.5668  97.4211 14.06598032851360
FENGYUN 1C DEB          
1 29770U 99025BL  23258.17936453  .00003738  00000+0  20162-2 0  9991
2 29770  98.8992 326.0726 0071846  90.0433 333.2092 14.11981594854870
FENGYUN 1C DEB          
1 29772U 99025BN  23258.69572604  .00001779  00000+0  11556-2 0  9994
2 29772  98.4531 159.6534 0144662  74.4662 315.4642 13.98706941848164
FENGYUN 1C DEB          
1 29773U 99025BP  23258.60450198  .00001354  00000+0  59621-3 0  9994
2 29773  98.8903  24.6904 0050145 136.6403 352.1858 14.24452749865306
FENGYUN 1C DEB          
1 29774U 99025BQ  23258.57498935  .00000471  00000+0  23386-3 0  9990
2 29774  99.0388 166.7151 0050670 308.9408 173.7656 14.21466558864325
FENGYUN 1C DEB          
1 29776U 99025BS  23258.57502354  .00000402  00000+0  26605-3 0  9994
2 29776  98.8679 294.1310 0024784  56.8883 106.6868 14.06988034855571
FENGYUN 1C DEB          
1 29777U 99025BT  23258.11323771  .00000215  00000+0  19925-3 0  9998
2 29777  99.4021 298.1358 0092707 260.6234 160.5637 13.91600192846393
FENGYUN 1C DEB          
1 29779U 99025BV  23258.54072998  .00000543  00000+0  31373-3 0  9994
2 29779  98.7307 282.0499 0063975 338.9179  20.9358 14.12066988858456
FENGYUN 1C DEB          
1 29780U 99025BW  23258.58023162  .00002820  00000+0  15460-2 0  9997
2 29780  99.3069 133.1722 0046175 280.7850  78.8124 14.12164371854823
