[{"OBJECT_NAME":"FENGYUN 1C DEB","OBJECT_ID":"1999-025AY","EPOCH":"2023-09-15T18:10:38.510688","MEAN_MOTION":14.23473255,"ECCENTRICITY":0.0029999,"INCLINATION":98.8576,"RA_OF_ASC_NODE":347.2614,"ARG_OF_PERICENTER":184.2001,"MEAN_ANOMALY":307.5335,"EPHEMERIS_TYPE":0,"CLASSIFICATION_TYPE":"U","NORAD_CAT_ID":29758,"ELEMENT_SET_NO":999,"REV_AT_EPOCH":85976,"BSTAR":0.0021133,"MEAN_MOTION_DOT":4.783e-5,"MEAN_MOTION_DDOT":0},{"OBJECT_NAME":"FENGYUN 1C DEB","OBJECT_ID":"1999-025BA","EPOCH":"2023-09-15T13:27:38.855232","MEAN_MOTION":14.07177632,"ECCENTRICITY":0.0131917,"INCLINATION":98.7783,"RA_OF_ASC_NODE":273.4216,"ARG_OF_PERICENTER":324.1315,"MEAN_ANOMALY":35.105,"EPHEMERIS_TYPE":0,"CLASSIFICATION_TYPE":"U","NORAD_CAT_ID":29760,"ELEMENT_SET_NO":999,"REV_AT_EPOCH":85567,"BSTAR":0.0002701,"MEAN_MOTION_DOT":4.46e-6,"MEAN_MOTION_DDOT":0},{"OBJECT_NAME":"FENGYUN 1C DEB","OBJECT_ID":"1999-025BC","EPOCH":"2023-09-15T10:55:04.082304","MEAN_MOTION":14.2023327,"ECCENTRICITY":0.0210053,"INCLINATION":98.5172,"RA_OF_ASC_NODE":255.7955,"ARG_OF_PERICENTER":194.3416,"MEAN_ANOMALY":323.1467,"EPHEMERIS_TYPE":0,"CLASSIFICATION_TYPE":"U","NORAD_CAT_ID":29762,"ELEMENT_SET_NO":999,"REV_AT_EPOCH":86309,"BSTAR":0.00023352,"MEAN_MOTION_DOT":5.78e-6,"MEAN_MOTION_DDOT":0},{"OBJECT_NAME":"FENGYUN 1C DEB","OBJECT_ID":"1999-025BD","EPOCH":"2023-09-15T13:27:33.837120","MEAN_MOTION":14.06650244,"ECCENTRICITY":0.0129255,"INCLINATION":98.6916,"RA_OF_ASC_NODE":255.2362,"ARG_OF_PERICENTER":332.29,"MEAN_ANOMALY":151.59,"EPHEMERIS_TYPE":0,"CLASSIFICATION_TYPE":"U","NORAD_CAT_ID":29763,"ELEMENT_SET_NO":999,"REV_AT_EPOCH":85528,"BSTAR":0.00028542,"MEAN_MOTION_DOT":4.68e-6,"MEAN_MOTION_DDOT":0},{"OBJECT_NAME":"FENGYUN 1C DEB","OBJECT_ID":"1999-025BF","EPOCH":"2023-09-15T13:21:02.946240","MEAN_MOTION":14.01774782,"ECCENTRICITY":0.0059075,"INCLINATION":98.9063,"RA_OF_ASC_NODE":288.4336,"ARG_OF_PERICENTER":212.8432,"MEAN_ANOMALY":301.3312,"EPHEMERIS_TYPE":0,"CLASSIFICATION_TYPE":"U","NORAD_CAT_ID":29765,"ELEMENT_SET_NO":999,"REV_AT_EPOCH":85272,"BSTAR":0.00021946,"MEAN_MOTION_DOT":2.95e-6,"MEAN_MOTION_DDOT":0},{"OBJECT_NAME":"FENGYUN 1C DEB","OBJECT_ID":"1999-025BG","EPOCH":"2023-09-15T11:00:11.641248","MEAN_MOTION":13.91605658,"ECCENTRICITY":0.015747,"INCLINATION":98.6169,"RA_OF_ASC_NODE":248.159,"ARG_OF_PERICENTER":35.1065,"MEAN_ANOMALY":116.3503,"EPHEMERIS_TYPE":0,"CLASSIFICATION_TYPE":"U","NORAD_CAT_ID":29766,"ELEMENT_SET_NO":999,"REV_AT_EPOCH":84386,"BSTAR":0.0020669,"MEAN_MOTION_DOT":2.861e-5,"MEAN_MOTION_DDOT":0},{"OBJECT_NAME":"FENGYUN 1C DEB","OBJECT_ID":"1999-025BH","EPOCH":"2023-09-15T14:22:01.299360","MEAN_MOTION":13.92140451,"ECCENTRICITY":0.0368019,"INCLINATION":98.2129,"RA_OF_ASC_NODE":302.7559,"ARG_OF_PERICENTER":214.7276,"MEAN_ANOMALY":301.8661,"EPHEMERIS_TYPE":0,"CLASSIFICATION_TYPE":"U","NORAD_CAT_ID":29767,"ELEMENT_SET_NO":999,"REV_AT_EPOCH":84170,"BSTAR":0.0016052,"MEAN_MOTION_DOT":3.542e-5,"MEAN_MOTION_DDOT":0},{"OBJECT_NAME":"FENGYUN 1C DEB","OBJECT_ID":"1999-025BK","EPOCH":"2023-09-15T12:58:34.526496","MEAN_MOTION":14.06598032,"ECCENTRICITY":0.0099498,"INCLINATION":99.1714,"RA_OF_ASC_NODE":292.0193,"ARG_OF_PERICENTER":261.5668,"MEAN_ANOMALY":97.4211,"EPHEMERIS_TYPE":0,"CLASSIFICATION_TYPE":"U","NORAD_CAT_ID":29769,"ELEMENT_SET_NO":999,"REV_AT_EPOCH":85136,"BSTAR":0.0014265,"MEAN_MOTION_DOT":2.426e-5,"MEAN_MOTION_DDOT":0},{"OBJECT_NAME":"FENGYUN 1C DEB","OBJECT_ID":"1999-025BL","EPOCH":"2023-09-15T04:18:17.095392","MEAN_MOTION":14.11981594,"ECCENTRICITY":0.0071846,"INCLINATION":98.8992,"RA_OF_ASC_NODE":326.0726,"ARG_OF_PERICENTER":90.0433,"MEAN_ANOMALY":333.2092,"EPHEMERIS_TYPE":0,"CLASSIFICATION_TYPE":"U","NORAD_CAT_ID":29770,"ELEMENT_SET_NO":999,"REV_AT_EPOCH":85487,"BSTAR":0.0020162,"MEAN_MOTION_DOT":3.738e-5,"MEAN_MOTION_DDOT":0},{"OBJECT_NAME":"FENGYUN 1C DEB","OBJECT_ID":"1999-025BN","EPOCH":"2023-09-15T16:41:50.729856","MEAN_MOTION":13.98706941,"ECCENTRICITY":0.0144662,"INCLINATION":98.4531,"RA_OF_ASC_NODE":159.6534,"ARG_OF_PERICENTER":74.4662,"MEAN_ANOMALY":315.4642,"EPHEMERIS_TYPE":0,"CLASSIFICATION_TYPE":"U","NORAD_CAT_ID":29772,"ELEMENT_SET_NO":999,"REV_AT_EPOCH":84816,"BSTAR":0.0011556,"MEAN_MOTION_DOT":1.779e-5,"MEAN_MOTION_DDOT":0},{"OBJECT_NAME":"FENGYUN 1C DEB","OBJECT_ID":"1999-025BP","EPOCH":"2023-09-15T14:30:28.971072","MEAN_MOTION":14.24452749,"ECCENTRICITY":0.0050145,"INCLINATION":98.8903,"RA_OF_ASC_NODE":24.6904,"ARG_OF_PERICENTER":136.6403,"MEAN_ANOMALY":352.1858,"EPHEMERIS_TYPE":0,"CLASSIFICATION_TYPE":"U","NORAD_CAT_ID":29773,"ELEMENT_SET_NO":999,"REV_AT_EPOCH":86530,"BSTAR":0.00059621,"MEAN_MOTION_DOT":1.354e-5,"MEAN_MOTION_DDOT":0},{"OBJECT_NAME":"FENGYUN 1C DEB","OBJECT_ID":"1999-025BQ","EPOCH":"2023-09-15T13:47:59.079840","MEAN_MOTION":14.21466558,"ECCENTRICITY":0.005067,"INCLINATION":99.0388,"RA_OF_ASC_NODE":166.7151,"ARG_OF_PERICENTER":308.9408,"MEAN_ANOMALY":173.7656,"EPHEMERIS_TYPE":0,"CLASSIFICATION_TYPE":"U","NORAD_CAT_ID":29774,"ELEMENT_SET_NO":999,"REV_AT_EPOCH":86432,"BSTAR":0.00023386,"MEAN_MOTION_DOT":4.71e-6,"MEAN_MOTION_DDOT":0},{"OBJECT_NAME":"FENGYUN 1C DEB","OBJECT_ID":"1999-025BS","EPOCH":"2023-09-15T13:48:02.033856","MEAN_MOTION":14.06988034,"ECCENTRICITY":0.0024784,"INCLINATION":98.8679,"RA_OF_ASC_NODE":294.131,"ARG_OF_PERICENTER":56.8883,"MEAN_ANOMALY":106.6868,"EPHEMERIS_TYPE":0,"CLASSIFICATION_TYPE":"U","NORAD_CAT_ID":29776,"ELEMENT_SET_NO":999,"REV_AT_EPOCH":85557,"BSTAR":0.00026605,"MEAN_MOTION_DOT":4.02e-6,"MEAN_MOTION_DDOT":0},{"OBJECT_NAME":"FENGYUN 1C DEB","OBJECT_ID":"1999-025BT","EPOCH":"2023-09-15T02:43:03.738144","MEAN_MOTION":13.91600192,"ECCENTRICITY":0.0092707,"INCLINATION":99.4021,"RA_OF_ASC_NODE":298.1358,"ARG_OF_PERICENTER":260.6234,"MEAN_ANOMALY":160.5637,"EPHEMERIS_TYPE":0,"CLASSIFICATION_TYPE":"U","NORAD_CAT_ID":29777,"ELEMENT_SET_NO":999,"REV_AT_EPOCH":84639,"BSTAR":0.00019925,"MEAN_MOTION_DOT":2.15e-6,"MEAN_MOTION_DDOT":0},{"OBJECT_NAME":"FENGYUN 1C DEB","OBJECT_ID":"1999-025BV","EPOCH":"2023-09-15T12:58:39.070272","MEAN_MOTION":14.12066988,"ECCENTRICITY":0.0063975,"INCLINATION":98.7307,"RA_OF_ASC_NODE":282.0499,"ARG_OF_PERICENTER":338.9179,"MEAN_ANOMALY":20.9358,"EPHEMERIS_TYPE":0,"CLASSIFICATION_TYPE":"U","NORAD_CAT_ID":29779,"ELEMENT_SET_NO":999,"REV_AT_EPOCH":85845,"BSTAR":0.00031373,"MEAN_MOTION_DOT":5.43e-6,"MEAN_MOTION_DDOT":0},{"OBJECT_NAME":"FENGYUN 1C DEB","OBJECT_ID":"1999-025BW","EPOCH":"2023-09-15T13:55:32.011968","MEAN_MOTION":14.12164371,"ECCENTRICITY":0.0046175,"INCLINATION":99.3069,"RA_OF_ASC_NODE":133.1722,"ARG_OF_PERICENTER":280.785,"MEAN_ANOMALY":78.8124,"EPHEMERIS_TYPE":0,"CLASSIFICATION_TYPE":"U","NORAD_CAT_ID":29780,"ELEMENT_SET_NO":999,"REV_AT_EPOCH":85482,"BSTAR":0.001546,"MEAN_MOTION_DOT":2.82e-5,"MEAN_MOTION_DDOT":0}]
